[
    {
        "Altitude(m)": 617719.7209957137,
        "Argument of Periapsis(deg)": 0.0,
        "Eccentricity": 0.0,
        "Inclination(deg)": 60.0,
        "Latitude(deg)": -41.10250488815961,
        "Longitude(deg)": 120.09459546360888,
        "Mean Anomaly(deg)": 229.09090000000006,
        "RAAN(deg)": 10.0,
        "Satellite Name": "Test1 58",
        "Satellite Number": 58,
        "Semi-Major Axis(m)": 6980739.136638005,
        "Time(s)": 0
    },
    {
        "Altitude(m)": 617911.2569912745,
        "Argument of Periapsis(deg)": 0.00010418945913296404,
        "Eccentricity": 0.0,
        "Inclination(deg)": 60.0,
        "Latitude(deg)": -41.56569740624056,
        "Longitude(deg)": 120.59900011839504,
        "Mean Anomaly(deg)": 229.71100614546188,
        "RAAN(deg)": 9.999579950860259,
        "Satellite Name": "Test1 58",
        "Satellite Number": 58,
        "Semi-Major Axis(m)": 6980739.136638005,
        "Time(s)": 10
    },
    {
        "Altitude(m)": 618101.6677815738,
        "Argument of Periapsis(deg)": 0.0002083789182659281,
        "Eccentricity": 0.0,
        "Inclination(deg)": 60.0,
        "Latitude(deg)": -42.026211438696805,
        "Longitude(deg)": 121.11121210332898,
        "Mean Anomaly(deg)": 230.3311122909237,
        "RAAN(deg)": 9.999159901720514,
        "Satellite Name": "Test1 58",
        "Satellite Number": 58,
        "Semi-Major Axis(m)": 6980739.136638005,
        "Time(s)": 20
    },
    {
        "Altitude(m)": 618290.880339237,
        "Argument of Periapsis(deg)": 0.00031256837739889213,
        "Eccentricity": 0.0,
        "Inclination(deg)": 60.0,
        "Latitude(deg)": -42.483966739413084,
        "Longitude(deg)": 121.63142610254543,
        "Mean Anomaly(deg)": 230.95121843638552,
        "RAAN(deg)": 9.998739852580773,
        "Satellite Name": "Test1 58",
        "Satellite Number": 58,
        "Semi-Major Axis(m)": 6980739.136638005,
        "Time(s)": 30
    },
    {
        "Altitude(m)": 618478.8220140892,
        "Argument of Periapsis(deg)": 0.0004167578365318562,
        "Eccentricity": 0.0,
        "Inclination(deg)": 60.0,
        "Latitude(deg)": -42.93888053724241,
        "Longitude(deg)": 122.15984059384911,
        "Mean Anomaly(deg)": 231.57132458184736,
        "RAAN(deg)": 9.99831980344103,
        "Satellite Name": "Test1 58",
        "Satellite Number": 58,
        "Semi-Major Axis(m)": 6980739.136638005,
        "Time(s)": 40
    },
    {
        "Altitude(m)": 618665.4205648234,
        "Argument of Periapsis(deg)": 0.0005209472956648203,
        "Eccentricity": 0.0,
        "Inclination(deg)": 60.0,
        "Latitude(deg)": -43.39086745789337,
        "Longitude(deg)": 122.69665675080383,
        "Mean Anomaly(deg)": 232.19143072730915,
        "RAAN(deg)": 9.997899754301287,
        "Satellite Name": "Test1 58",
        "Satellite Number": 58,
        "Semi-Major Axis(m)": 6980739.136638005,
        "Time(s)": 50
    },
    {
        "Altitude(m)": 618850.6041904349,
        "Argument of Periapsis(deg)": 0.0006251367547977843,
        "Eccentricity": 0.0,
        "Inclination(deg)": 60.0,
        "Latitude(deg)": -43.83983944517681,
        "Longitude(deg)": 123.24207883794152,
        "Mean Anomaly(deg)": 232.811536872771,
        "RAAN(deg)": 9.997479705161545,
        "Satellite Name": "Test1 58",
        "Satellite Number": 58,
        "Semi-Major Axis(m)": 6980739.136638005,
        "Time(s)": 60
    },
    {
        "Altitude(m)": 619034.301561466,
        "Argument of Periapsis(deg)": 0.0007293262139307483,
        "Eccentricity": 0.0,
        "Inclination(deg)": 60.0,
        "Latitude(deg)": -44.28570568184442,
        "Longitude(deg)": 123.79631458435475,
        "Mean Anomaly(deg)": 233.43164301823282,
        "RAAN(deg)": 9.9970596560218,
        "Satellite Name": "Test1 58",
        "Satellite Number": 58,
        "Semi-Major Axis(m)": 6980739.136638005,
        "Time(s)": 70
    },
    {
        "Altitude(m)": 619216.4418510111,
        "Argument of Periapsis(deg)": 0.0008335156730637124,
        "Eccentricity": 0.0,
        "Inclination(deg)": 60.0,
        "Latitude(deg)": -44.728372510283045,
        "Longitude(deg)": 124.35957402081506,
        "Mean Anomaly(deg)": 234.05174916369467,
        "RAAN(deg)": 9.99663960688206,
        "Satellite Name": "Test1 58",
        "Satellite Number": 58,
        "Semi-Major Axis(m)": 6980739.136638005,
        "Time(s)": 80
    },
    {
        "Altitude(m)": 619396.9547654794,
        "Argument of Periapsis(deg)": 0.0009377051321966765,
        "Eccentricity": 0.0,
        "Inclination(deg)": 60.0,
        "Latitude(deg)": -45.16774335336912,
        "Longitude(deg)": 124.93206980405186,
        "Mean Anomaly(deg)": 234.67185530915646,
        "RAAN(deg)": 9.996219557742315,
        "Satellite Name": "Test1 58",
        "Satellite Number": 58,
        "Semi-Major Axis(m)": 6980739.136638005,
        "Time(s)": 90
    },
    {
        "Altitude(m)": 619575.7705751106,
        "Argument of Periapsis(deg)": 0.0010418945913296407,
        "Eccentricity": 0.0,
        "Inclination(deg)": 60.0,
        "Latitude(deg)": -45.60371863582638,
        "Longitude(deg)": 125.5140175131,
        "Mean Anomaly(deg)": 235.2919614546183,
        "RAAN(deg)": 9.995799508602573,
        "Satellite Name": "Test1 58",
        "Satellite Number": 58,
        "Semi-Major Axis(m)": 6980739.136638005,
        "Time(s)": 100
    },
    {
        "Altitude(m)": 619752.8201441867,
        "Argument of Periapsis(deg)": 0.0011460840504626045,
        "Eccentricity": 0.0,
        "Inclination(deg)": 60.0,
        "Latitude(deg)": -46.03619570646777,
        "Longitude(deg)": 126.10563440249705,
        "Mean Anomaly(deg)": 235.91206760008015,
        "RAAN(deg)": 9.99537945946283,
        "Satellite Name": "Test1 58",
        "Satellite Number": 58,
        "Semi-Major Axis(m)": 6980739.136638005,
        "Time(s)": 110
    },
    {
        "Altitude(m)": 619928.0349610131,
        "Argument of Periapsis(deg)": 0.0012502735095955685,
        "Eccentricity": 0.0,
        "Inclination(deg)": 60.0,
        "Latitude(deg)": -46.46506876175756,
        "Longitude(deg)": 126.70713963561953,
        "Mean Anomaly(deg)": 236.53217374554197,
        "RAAN(deg)": 9.994959410323089,
        "Satellite Name": "Test1 58",
        "Satellite Number": 58,
        "Semi-Major Axis(m)": 6980739.136638005,
        "Time(s)": 120
    },
    {
        "Altitude(m)": 620101.347167562,
        "Argument of Periapsis(deg)": 0.0013544629687285324,
        "Eccentricity": 0.0,
        "Inclination(deg)": 60.0,
        "Latitude(deg)": -46.89022877117345,
        "Longitude(deg)": 127.31875448272194,
        "Mean Anomaly(deg)": 237.15227989100384,
        "RAAN(deg)": 9.994539361183346,
        "Satellite Name": "Test1 58",
        "Satellite Number": 58,
        "Semi-Major Axis(m)": 6980739.136638005,
        "Time(s)": 130
    },
    {
        "Altitude(m)": 620272.689588836,
        "Argument of Periapsis(deg)": 0.0014586524278614966,
        "Eccentricity": 0.0,
        "Inclination(deg)": 60.0,
        "Latitude(deg)": -47.3115634049016,
        "Longitude(deg)": 127.94070096814396,
        "Mean Anomaly(deg)": 237.77238603646566,
        "RAAN(deg)": 9.994119312043603,
        "Satellite Name": "Test1 58",
        "Satellite Number": 58,
        "Semi-Major Axis(m)": 6980739.136638005,
        "Time(s)": 140
    },
    {
        "Altitude(m)": 620441.9957618859,
        "Argument of Periapsis(deg)": 0.0015628418869944607,
        "Eccentricity": 0.0,
        "Inclination(deg)": 60.0,
        "Latitude(deg)": -47.728956964460664,
        "Longitude(deg)": 128.5732019896792,
        "Mean Anomaly(deg)": 238.3924921819275,
        "RAAN(deg)": 9.99369926290386,
        "Satellite Name": "Test1 58",
        "Satellite Number": 58,
        "Semi-Major Axis(m)": 6980739.136638005,
        "Time(s)": 150
    },
    {
        "Altitude(m)": 620609.1999645302,
        "Argument of Periapsis(deg)": 0.0016670313461274247,
        "Eccentricity": 0.0,
        "Inclination(deg)": 60.0,
        "Latitude(deg)": -48.142290316904635,
        "Longitude(deg)": 129.21648139441018,
        "Mean Anomaly(deg)": 239.0125983273893,
        "RAAN(deg)": 9.993279213764117,
        "Satellite Name": "Test1 58",
        "Satellite Number": 58,
        "Semi-Major Axis(m)": 6980739.136638005,
        "Time(s)": 160
    },
    {
        "Altitude(m)": 620774.2372436979,
        "Argument of Periapsis(deg)": 0.0017712208052603888,
        "Eccentricity": 0.0,
        "Inclination(deg)": 60.0,
        "Latitude(deg)": -48.5514408333212,
        "Longitude(deg)": 129.87076249526675,
        "Mean Anomaly(deg)": 239.63270447285115,
        "RAAN(deg)": 9.992859164624374,
        "Satellite Name": "Test1 58",
        "Satellite Number": 58,
        "Semi-Major Axis(m)": 6980739.136638005,
        "Time(s)": 170
    },
    {
        "Altitude(m)": 620937.0434434456,
        "Argument of Periapsis(deg)": 0.001875410264393353,
        "Eccentricity": 0.0,
        "Inclination(deg)": 60.0,
        "Latitude(deg)": -48.95628233241159,
        "Longitude(deg)": 130.5362680511425,
        "Mean Anomaly(deg)": 240.252810618313,
        "RAAN(deg)": 9.992439115484633,
        "Satellite Name": "Test1 58",
        "Satellite Number": 58,
        "Semi-Major Axis(m)": 6980739.136638005,
        "Time(s)": 180
    },
    {
        "Altitude(m)": 621097.555232585,
        "Argument of Periapsis(deg)": 0.0019795997235263173,
        "Eccentricity": 0.0,
        "Inclination(deg)": 60.0,
        "Latitude(deg)": -49.35668503000509,
        "Longitude(deg)": 131.21322019479663,
        "Mean Anomaly(deg)": 240.8729167637748,
        "RAAN(deg)": 9.992019066344888,
        "Satellite Name": "Test1 58",
        "Satellite Number": 58,
        "Semi-Major Axis(m)": 6980739.136638005,
        "Time(s)": 190
    }
]